{"type": "FeatureCollection", "features": [ {"type": "Feature", "properties": {"norad_id": 30914, "name": "FENGYUN 1C DEB", "group": "fengyun-1c-debris", "lat": -31.533826297301324, "lon": -121.74867024367948, "alt_km": 868.5379873362845, "timestamp": "2025-12-14T05:42:18.739802+00:00", "meta": {"OBJECT_NAME": "FENGYUN 1C DEB", "OBJECT_ID": "1999-025AZC", "EPOCH": "2025-12-12T22:39:59.116608", "MEAN_MOTION": 13.08837049, "ECCENTRICITY": 0.05165148, "INCLINATION": 99.9823, "RA_OF_ASC_NODE": 230.8365, "ARG_OF_PERICENTER": 353.8635, "MEAN_ANOMALY": 5.6308, "EPHEMERIS_TYPE": 0, "CLASSIFICATION_TYPE": "U", "NORAD_CAT_ID": 30914, "ELEMENT_SET_NO": 999, "REV_AT_EPOCH": 59078, "BSTAR": 0.004351417, "MEAN_MOTION_DOT": 2.822e-05, "MEAN_MOTION_DDOT": 0}, "tle": {"line1": "1 30914U 99025AZC 25346.94443422  .00002822  00000+0  43514-2 0  9996", "line2": "2 30914  99.9823 230.8365 0516514 353.8635   5.6308 13.08837049590785"}}, "geometry": {"type": "Point", "coordinates": [-121.74867024367948, -31.533826297301324]}}, {"type": "Feature", "properties": {"norad_id": 30915, "name": "FENGYUN 1C DEB", "group": "fengyun-1c-debris", "lat": -46.19959344698164, "lon": 73.88872552224156, "alt_km": 848.2567633433246, "timestamp": "2025-12-14T05:42:18.739815+00:00", "meta": {"OBJECT_NAME": "FENGYUN 1C DEB", "OBJECT_ID": "1999-025AZD", "EPOCH": "2025-12-11T22:19:06.926592", "MEAN_MOTION": 14.25031118, "ECCENTRICITY": 0.0053816, "INCLINATION": 98.9416, "RA_OF_ASC_NODE": 62.089, "ARG_OF_PERICENTER": 170.3721, "MEAN_ANOMALY": 189.8502, "EPHEMERIS_TYPE": 0, "CLASSIFICATION_TYPE": "U", "NORAD_CAT_ID": 30915, "ELEMENT_SET_NO": 999, "REV_AT_EPOCH": 96501, "BSTAR": 0.0025846, "MEAN_MOTION_DOT": 6.104e-05, "MEAN_MOTION_DDOT": 0}, "tle": {"line1": "1 30915U 99025AZD 25345.92994128  .00006104  00000+0  25846-2 0  9993", "line2": "2 30915  98.9416  62.0890 0053816 170.3721 189.8502 14.25031118965016"}}, "geometry": {"type": "Point", "coordinates": [73.88872552224156, -46.19959344698164]}}, {"type": "Feature", "properties": {"norad_id": 30916, "name": "FENGYUN 1C DEB", "group": "fengyun-1c-debris", "lat": -80.93828497956788, "lon": 132.26065196352604, "alt_km": 827.388318335129, "timestamp": "2025-12-14T05:42:18.739827+00:00", "meta": {"OBJECT_NAME": "FENGYUN 1C DEB", "OBJECT_ID": "1999-025AZE", "EPOCH": "2025-12-12T15:38:58.221600", "MEAN_MOTION": 14.08795656, "ECCENTRICITY": 0.00626063, "INCLINATION": 99.002, "RA_OF_ASC_NODE": 46.9958, "ARG_OF_PERICENTER": 258.4803, "MEAN_ANOMALY": 254.8183, "EPHEMERIS_TYPE": 0, "CLASSIFICATION_TYPE": "U", "NORAD_CAT_ID": 30916, "ELEMENT_SET_NO": 999, "REV_AT_EPOCH": 95842, "BSTAR": 0.0017460829, "MEAN_MOTION_DOT": 3.023e-05, "MEAN_MOTION_DDOT": 0}, "tle": {"line1": "1 30916U 99025AZE 25346.65206275  .00003023  00000+0  17461-2 0  9995", "line2": "2 30916  99.0020  46.9958 0062606 258.4803 254.8183 14.08795656958422"}}, "geometry": {"type": "Point", "coordinates": [132.26065196352604, -80.93828497956788]}}, {"type": "Feature", "properties": {"norad_id": 30918, "name": "FENGYUN 1C DEB", "group": "fengyun-1c-debris", "lat": -67.97737202741153, "lon": 121.7900208563261, "alt_km": 1025.1045101292275, "timestamp": "2025-12-14T05:42:18.739839+00:00", "meta": {"OBJECT_NAME": "FENGYUN 1C DEB", "OBJECT_ID": "1999-025AZG", "EPOCH": "2025-12-13T07:48:03.216672", "MEAN_MOTION": 13.96825625, "ECCENTRICITY": 0.01580921, "INCLINATION": 98.4158, "RA_OF_ASC_NODE": 99.4852, "ARG_OF_PERICENTER": 123.7392, "MEAN_ANOMALY": 259.4543, "EPHEMERIS_TYPE": 0, "CLASSIFICATION_TYPE": "U", "NORAD_CAT_ID": 30918, "ELEMENT_SET_NO": 999, "REV_AT_EPOCH": 95061, "BSTAR": 0.002192948, "MEAN_MOTION_DOT": 3.351e-05, "MEAN_MOTION_DDOT": 0}, "tle": {"line1": "1 30918U 99025AZG 25347.32503723  .00003351  00000+0  21929-2 0  9998", "line2": "2 30918  98.4158  99.4852 0158092 123.7392 259.4543 13.96825625950617"}}, "geometry": {"type": "Point", "coordinates": [121.7900208563261, -67.97737202741153]}}, {"type": "Feature", "properties": {"norad_id": 30920, "name": "FENGYUN 1C DEB", "group": "fengyun-1c-debris", "lat": -58.04272371591013, "lon": 144.112890724277, "alt_km": 914.0983481732419, "timestamp": "2025-12-14T05:42:18.739849+00:00", "meta": {"OBJECT_NAME": "FENGYUN 1C DEB", "OBJECT_ID": "1999-025AZJ", "EPOCH": "2025-12-13T02:51:57.736800", "MEAN_MOTION": 14.16640408, "ECCENTRICITY": 0.01095409, "INCLINATION": 98.9183, "RA_OF_ASC_NODE": 128.4137, "ARG_OF_PERICENTER": 97.2984, "MEAN_ANOMALY": 264.0656, "EPHEMERIS_TYPE": 0, "CLASSIFICATION_TYPE": "U", "NORAD_CAT_ID": 30920, "ELEMENT_SET_NO": 999, "REV_AT_EPOCH": 95099, "BSTAR": 0.0053387355, "MEAN_MOTION_DOT": 0.00011273, "MEAN_MOTION_DDOT": 0}, "tle": {"line1": "1 30920U 99025AZJ 25347.11941825  .00011273  00000+0  53387-2 0  9992", "line2": "2 30920  98.9183 128.4137 0109540  97.2984 264.0656 14.16640408950993"}}, "geometry": {"type": "Point", "coordinates": [144.112890724277, -58.04272371591013]}}, {"type": "Feature", "properties": {"norad_id": 30921, "name": "FENGYUN 1C DEB", "group": "fengyun-1c-debris", "lat": -79.9844520813829, "lon": 137.56410924478428, "alt_km": 795.5655846445734, "timestamp": "2025-12-14T05:42:18.739859+00:00", "meta": {"OBJECT_NAME": "FENGYUN 1C DEB", "OBJECT_ID": "1999-025AZK", "EPOCH": "2025-12-13T05:05:47.029632", "MEAN_MOTION": 14.32742746, "ECCENTRICITY": 0.00168056, "INCLINATION": 98.8426, "RA_OF_ASC_NODE": 74.7006, "ARG_OF_PERICENTER": 36.1618, "MEAN_ANOMALY": 352.9936, "EPHEMERIS_TYPE": 0, "CLASSIFICATION_TYPE": "U", "NORAD_CAT_ID": 30921, "ELEMENT_SET_NO": 999, "REV_AT_EPOCH": 96831, "BSTAR": 0.0025449888, "MEAN_MOTION_DOT": 6.901e-05, "MEAN_MOTION_DDOT": 0}, "tle": {"line1": "1 30921U 99025AZK 25347.21234988  .00006901  00000+0  25450-2 0  9991", "line2": "2 30921  98.8426  74.7006 0016805  36.1618 352.9936 14.32742746968317"}}, "geometry": {"type": "Point", "coordinates": [137.56410924478428, -79.9844520813829]}}, {"type": "Feature", "properties": {"norad_id": 30922, "name": "FENGYUN 1C DEB", "group": "fengyun-1c-debris", "lat": 41.08158903419729, "lon": -168.3408252623405, "alt_km": 830.3382353123279, "timestamp": "2025-12-14T05:42:18.739869+00:00", "meta": {"OBJECT_NAME": "FENGYUN 1C DEB", "OBJECT_ID": "1999-025AZL", "EPOCH": "2025-12-13T07:20:32.156736", "MEAN_MOTION": 14.1746209, "ECCENTRICITY": 0.00145576, "INCLINATION": 98.6407, "RA_OF_ASC_NODE": 3.1355, "ARG_OF_PERICENTER": 52.3773, "MEAN_ANOMALY": 13.595, "EPHEMERIS_TYPE": 0, "CLASSIFICATION_TYPE": "U", "NORAD_CAT_ID": 30922, "ELEMENT_SET_NO": 999, "REV_AT_EPOCH": 96572, "BSTAR": 0.00096039845, "MEAN_MOTION_DOT": 1.906e-05, "MEAN_MOTION_DDOT": 0}, "tle": {"line1": "1 30922U 99025AZL 25347.30592774  .00001906  00000+0  96040-3 0  9996", "line2": "2 30922  98.6407   3.1355 0014557  52.3773  13.5950 14.17462090965724"}}, "geometry": {"type": "Point", "coordinates": [-168.3408252623405, 41.08158903419729]}}, {"type": "Feature", "properties": {"norad_id": 30925, "name": "FENGYUN 1C DEB", "group": "fengyun-1c-debris", "lat": 41.932308901488085, "lon": 112.00659491868753, "alt_km": 767.8839399318167, "timestamp": "2025-12-14T05:42:18.739879+00:00", "meta": {"OBJECT_NAME": "FENGYUN 1C DEB", "OBJECT_ID": "1999-025AZP", "EPOCH": "2025-12-13T03:42:18.376704", "MEAN_MOTION": 14.43137252, "ECCENTRICITY": 0.00331861, "INCLINATION": 98.8821, "RA_OF_ASC_NODE": 118.9528, "ARG_OF_PERICENTER": 236.2862, "MEAN_ANOMALY": 301.202, "EPHEMERIS_TYPE": 0, "CLASSIFICATION_TYPE": "U", "NORAD_CAT_ID": 30925, "ELEMENT_SET_NO": 999, "REV_AT_EPOCH": 97078, "BSTAR": 0.003630736, "MEAN_MOTION_DOT": 0.00012246, "MEAN_MOTION_DDOT": 0}, "tle": {"line1": "1 30925U 99025AZP 25347.15437936  .00012246  00000+0  36307-2 0  9998", "line2": "2 30925  98.8821 118.9528 0033186 236.2862 301.2020 14.43137252970782"}}, "geometry": {"type": "Point", "coordinates": [112.00659491868753, 41.932308901488085]}}, {"type": "Feature", "properties": {"norad_id": 30926, "name": "FENGYUN 1C DEB", "group": "fengyun-1c-debris", "lat": 77.50709187831741, "lon": -115.22918696206904, "alt_km": 540.5338390382885, "timestamp": "2025-12-14T05:42:18.739890+00:00", "meta": {"OBJECT_NAME": "FENGYUN 1C DEB", "OBJECT_ID": "1999-025AZQ", "EPOCH": "2025-12-12T06:35:38.168448", "MEAN_MOTION": 14.89343424, "ECCENTRICITY": 0.01658632, "INCLINATION": 98.802, "RA_OF_ASC_NODE": 286.9622, "ARG_OF_PERICENTER": 23.2936, "MEAN_ANOMALY": 337.5683, "EPHEMERIS_TYPE": 0, "CLASSIFICATION_TYPE": "U", "NORAD_CAT_ID": 30926, "ELEMENT_SET_NO": 999, "REV_AT_EPOCH": 760, "BSTAR": 0.0008018448, "MEAN_MOTION_DOT": 9.789e-05, "MEAN_MOTION_DDOT": 0}, "tle": {"line1": "1 30926U 99025AZQ 25346.27474732  .00009789  00000+0  80184-3 0  9997", "line2": "2 30926  98.8020 286.9622 0165863  23.2936 337.5683 14.89343424  7608"}}, "geometry": {"type": "Point", "coordinates": [-115.22918696206904, 77.50709187831741]}}, {"type": "Feature", "properties": {"norad_id": 30927, "name": "FENGYUN 1C DEB", "group": "fengyun-1c-debris", "lat": -23.241516415970587, "lon": -135.24725434595223, "alt_km": 934.2838817490556, "timestamp": "2025-12-14T05:42:18.739900+00:00", "meta": {"OBJECT_NAME": "FENGYUN 1C DEB", "OBJECT_ID": "1999-025AZR", "EPOCH": "2025-12-12T15:14:48.459840", "MEAN_MOTION": 14.08978851, "ECCENTRICITY": 0.0098355, "INCLINATION": 99.1821, "RA_OF_ASC_NODE": 47.1038, "ARG_OF_PERICENTER": 6.2521, "MEAN_ANOMALY": 353.9851, "EPHEMERIS_TYPE": 0, "CLASSIFICATION_TYPE": "U", "NORAD_CAT_ID": 30927, "ELEMENT_SET_NO": 999, "REV_AT_EPOCH": 95682, "BSTAR": 0.0022807809, "MEAN_MOTION_DOT": 4.084e-05, "MEAN_MOTION_DDOT": 0}, "tle": {"line1": "1 30927U 99025AZR 25346.63528310  .00004084  00000+0  22808-2 0  9991", "line2": "2 30927  99.1821  47.1038 0098355   6.2521 353.9851 14.08978851956827"}}, "geometry": {"type": "Point", "coordinates": [-135.24725434595223, -23.241516415970587]}}]}